 HYPOINVERSE 2000
 6/2014 VERSION 1.40 (geoid depth possible)                            
 RUN ON Tue Aug 26 13:52:03 2014      RUN LABEL= 
 PROCESSING DOMAIN=NC  PROCESSING VERSION=01


 CRUST MODEL  1: GEY GEYSERS MODEL             

 HOMOGENEOUS LAYER MODEL WITH THE FOLLOWING VELOCITIES AND LAYER TOPS:
    VELOCITY  DEPTH
  1   4.430   0.000
  2   5.120   1.500
  3   5.470   3.000
  4   5.580   4.250
  5   5.620   6.000
  6   5.860   8.000
  7   7.900  21.000

 TEST PARAMETERS:
   -ITERATION AND CONVERGENCE-     -WEIGHTING AND ERRORS-     -MISCELLANEOUS-
       20=ITRLIM   0.900=DAMP    15.000=DISCUT   0.100=RMSCUT       4=MINSTA
    0.040=DQUIT    0.001=DRQT     3.500=DISW1    2.000=RMSW1        2=NET
    7.000=DXFIX    0.012=EIGTOL   7.000=DISW2    3.000=RMSW2 
   30.000=DZMAX    0.020=RBACK        4=ITRDIS       4=ITRRES   5.000=ZTR
    0.500=DZAIR    0.600=BACFAC   1.000=SWT      0.100=RDERR 
                                                 1.000=ERCOF

      ------DURATION MAG CONSTANTS------       -DELAYS & MISC-    -STATIONS-
   -0.810=FMA1     0.000=FMA2   -1.0300=DMA0         F=LMULT        F=ATTEN
    2.220=FMB1     0.000=FMB2    2.1000=DMA1         T=CODAWT       5=SITE-LET
    0.000=FMZ1     0.000=FMZ2    0.0000=DMA2         F=LJUNK        2=NET-LET
    0.001=FMD1     0.000=FMD2    0.0000=DMZ                         3=COMP-LET
    0.000=FMF1     0.000=FMF2    1.0000=DMGN  
    1.000=FMGN  9999.000=FMBRK   0.0027=DMLIN 
   0.0050=DCOF1   40.000=DBRK1        1=LOGA0 
   0.0006=DCOF2  350.000=DBRK2 
   0.0140=ZCOF    10.000=ZBRK  

    --- MAGNITUDE LABELS & COMPONENTS ---
    FMAG1: LABEL=D      COMPS= EHZ SHZ HHZ BHZ DPZ
    FMAG2: LABEL=    NO COMPS=
    XMAG1: LABEL=   ALL  TYPE=ALL  COMPS=
    XMAG2: LABEL=    NO  TYPE=ALL  COMPS=
    FMAG1 MAGSEL=1  FMAG2 MAGSEL=1

 INPUT FILES:
 COMMANDS:    testone.hyp                                                 
                                                                          
 STATIONS:    allseed.sta                                                 STATION FORMAT CODE= 3
 DELAYS:       gey4.del                                                    
 ATTENUATIONS:                                                             
 CAL FACTORS:  all2000seed.cal                                             
 FMAG CORRECT: all2000seed.fmc                                             
 XMAG CORRECT:                                                             

 PHASES:       testone.phs                                                 
        PHASE FORMAT CODE= 3, TERMINATOR FORMAT CODE=1
 HOMOGENEOUS LAYER CRUST 1:  gey.crh                                                     

 OUTPUT FILES: (T IF APPENDED TO)
 (F) PRINTOUT:    testone.prt                                                 
 (F) SUMMARY:     testone.sum                                                 FORMAT CODE=2
 (F) ARCHIVE:     testone.arc                                                 ARCHIVE FORMAT CODE= 1

 ####################################################################################
   3 JAN 2010,  8:33  SEQUENCE NO.    1, ID NO.  71329580
                                                        ADJUSTMENTS (KM)
  I ORIGIN   LAT N     LON W     Z   NWR  RMS    DT    DLAT   DLON    DZ    RR NF MOD
 BEGIN FIRST DISTANCE WEIGHTING
  1  6.26  38 48.83  122W50.05  5.00 119 1.48  1.396  0.092 -1.729  0.000 1.731 3 GEY
 FREE DEPTH
  2  7.66  38 48.88  122W48.85  5.00 119 0.34  0.152 -0.257  0.166 -2.418 2.437 4 GEY
  3  7.81  38 48.74  122W48.97  2.58 119 0.18 -0.039  0.010 -0.018 -0.310 0.311 4 GEY
 BEGIN MAIN DISTANCE WEIGHTING
 BEGIN RESIDUAL WEIGHTING
  4  7.77  38 48.75  122W48.96  2.27  76 0.06 -0.015  0.113  0.022  0.165 0.201 4 GEY
  5  7.75  38 48.81  122W48.97  2.44  78 0.06 -0.001  0.015 -0.004  0.009 0.018 4 GEY
  6  7.75  38 48.82  122W48.97  2.45  78 0.06 -0.001  0.001  0.005  0.008 0.010 4 GEY
 ERROR ELLIPSE: <SERR AZ DIP>-<   0.13 237 76>-<   0.10  34 12>-<   0.07 126  4>
 ------------------------------------------------------------------------------------
 YEAR MO DA  --ORIGIN--  --LAT N-  --LON W--  DEPTH-M RMS   ERH   ERZ  XMAG1 FMAG1 PMAG GEOID-DEP
 2010-01-03  0833  7.75  38 48.82  122W48.97   2.45  0.06  0.09  0.13        2.90  2.90D    1.74
                                                                                          SOURCE
 NSTA NPHS  DMIN MODEL GAP ITR NFM NWR NWS NVR REMRKS-AVH  N.XMG-XMMAD-T   N.FMG-FMMAD-T  L F X
  126  126   1.2  GEY   19   6  85  78   2 119 GEY     3F                     81  0.21 D  J J  

 XMAG2-N.XMG2-XMMAD-T-S  FMAG2-N.FMG2-FMMAD-T-S  PREF.MAG-N.PMAG-PRMAD-T DEPDAT NS ZT TYP
                                                     2.90     81  0.21 D    710  5  M CRH

 EXTERNAL MAG= 2.92  NUMBER READINGS=   81  TYPE=D
 REGION= Geysers                  

 STA NET COM L CR DIST AZM  AN P/S WT   SEC (TOBS -TCAL -DLY  =RES)  WT   SR  INFO  CAL  DUR-W-FMAG-T -AMP-U-PER-W-XMAG-T DE
 SQK  BG DPE -- G  1.2  26 151 ES  3   8.96  1.21  1.03-0.09  0.27  0.02S J  0.000                                           
 SQK  BG DPZ -- G  1.2  26 151 IPU     8.31  0.56  0.58-0.05  0.03  2.11  J  0.185 0.00 46.0 5 2.69XD                        
 SB4  BG DPE -- G  1.2 245 150 ES  2   8.81  1.06  1.03-0.18  0.21  0.42S J  0.020                                           
 SB4  BG DPZ -- G  1.2 245 150 IPU 1   8.26  0.51  0.58-0.10  0.03  1.05  J  0.046 0.00 54.0 5 2.84XD                        
 GDXB NC HHZ -- G  1.9 109 138 IPU     8.42  0.67  0.66-0.10  0.11  2.11  J  0.138 0.00 61.0   2.97 D                        
 BUC  BG DPZ -- G  2.0 303 137 IPD     8.38  0.63  0.66-0.01 -0.02  2.11  J  0.158 0.00 26.0 5 2.14XD                        
 DRK  BG DPE -- G  3.0 157 123 ES  2   9.37  1.62  1.48-0.16  0.30  0.00S J  0.000                                           
 DRK  BG DPZ -- G  3.0 157 123 IPU     8.54  0.79  0.83-0.09  0.05  2.11  J  0.119 0.00 46.0 5 2.70XD                        
 AL4  BG DPZ -- G  3.3 329 120 IPD     8.59  0.84  0.86-0.02  0.00  2.11  J  0.135 0.00 39.0 5 2.54XD                        
 FUM  BG DPZ -- G  3.3 132 119 IPU 1   8.55  0.80  0.88-0.06 -0.02  1.05  J  0.024 0.00 47.0 5 2.72XD                        
 CLV  BG DPN -- G  3.5  39 118 ES  2   9.35  1.60  1.62-0.04  0.02  0.42S J  0.017                                           
 CLV  BG DPZ -- G  3.5  39 118 IPU     8.65  0.90  0.91-0.02  0.01  2.11  J  0.139 0.00 39.0 5 2.54XD                        
 AL3  BG DPZ -- G  3.9 294 115 IPU 1   8.60  0.85  0.97-0.01 -0.11  1.05  J  0.034 0.00 32.0 5 2.35XD                        
 AL6  BG DPE -- G  4.2 249 112 ES  2   9.75  2.00  1.83-0.09  0.26  0.08S J  0.000                                           
 AL6  BG DPZ -- G  4.2 249 112 IPU     8.70  0.95  1.03-0.05 -0.03  2.11  J  0.171 0.00 33.0 5 2.39XD                        
 JKR  BG DPZ -- G  5.1 106 107 IPD     8.90  1.15  1.20-0.03 -0.02  2.11  J  0.076 0.00 27.0 5 2.20XD                        
 AL5  BG DPZ -- G  5.4 303 106 IPD 1   8.87  1.12  1.25-0.08 -0.05  1.05  J  0.033 0.00 27.0 5 2.20XD                        
 ACR  BG DPZ -- G  5.5  62 106 IPD 1   8.97  1.22  1.26-0.07  0.03  1.05  J  0.027                                           
 GGPB NC EHZ -- G  6.0 205 104 IPD     9.09  1.34  1.37-0.07  0.04  2.11  J  0.171 5.62 54.0   3.10 D                        
 FNF  BG DPZ -- G  6.5 137 102 IPU 1   9.06  1.31  1.45-0.12 -0.02  1.05  J  0.019 0.00 32.0 5 2.37XD                        
 AL2  BG DPZ -- G  7.1 273 101 IPD 1   9.20  1.45  1.57-0.06 -0.06  1.05  J  0.040 0.00 24.0 5 2.10XD                        
 RGP  BG DPZ -- G  7.2   3 101 IPU     9.03  1.28  1.59-0.06 -0.25  0.45  J  0.005 0.00 32.0 5 2.38XD                        
 TCH  BG DPZ -- G  7.7 116 100 IPU     9.29  1.54  1.68-0.07 -0.07  2.11  J  0.067 0.00 36.0 5 2.49XD                        
 GAC  NC EHZ -- G  7.7 329 100 IPU     9.39  1.64  1.69-0.04 -0.01  2.11  J  0.125 5.62 40.0   2.80 D                        
 MNS  BG DPZ -- G  9.0 105  98 IPD     9.64  1.89  1.93-0.02 -0.02  2.11  J  0.068 0.00 48.0 5 2.78XD                        
 PFR  BG DPZ -- G  9.2 137  98 IPU     9.57  1.82  1.97-0.11 -0.04  2.11  J  0.077 0.00 29.0 5 2.29XD                        
 GCR  NC EHZ 02 G  9.7 117  97 IPU     9.63  1.88  2.07-0.18 -0.01  2.11  J  0.066 5.62 44.0   3.10 D                        
 GSG  NC EHZ 02 G 11.0  57  96 IPD    10.33  2.58  2.32 0.24  0.02  2.11  J  0.106 5.62  140 2 3.67 D                        
 DES  BG DPZ -- G 11.3 116  96 IPD     9.93  2.18  2.39-0.16 -0.05  2.11  J  0.065 0.00 29.0 5 2.31XD                        
 GBG  NC EHZ -- G 11.6  89  95 IPU    10.33  2.58  2.44 0.09  0.05  2.11  J  0.076 2.82 80.0 2 3.57 D                        
 GPM  NC EHZ 02 G 11.8 288  95 IPU    10.24  2.49  2.49-0.01  0.01  2.11  J  0.152 2.82 49.0   3.26 D                        
 SSR  BG DPZ -- G 12.2 131  95 IPU    10.11  2.36  2.56-0.14 -0.06  2.11  J  0.072 0.00 32.0 5 2.41XD                        
 GAXB NC EHZ -- G 12.5 155  95 IPD    10.09  2.34  2.62-0.27 -0.01  2.11  J  0.100 4.64  116 6 4.06XD                        
 EPR  BG DPZ -- G 13.0 124  69 EPD 2  10.28  2.53  2.71-0.09 -0.09  0.42  J  0.003 0.00 30.0 5 2.35XD                        
 GMK  NC EHZ -- G 17.5   8  69 IPD    11.58  3.83  3.53 0.27  0.03  2.11  J  0.154 5.62  132 2 3.63 D                        
 GRT  NC EHZ -- G 18.7  42  69 IPD    11.30  3.55  3.76-0.17 -0.04  2.11  J  0.135 5.62 58.0   3.20 D                        
 GSS  NC EHZ -- G 21.2 235  69 IPD 1  11.95  4.20  4.21 0.02 -0.03  1.05  J  0.062 5.62 44.0   3.06 D                        
 NHS  NC EHZ -- N 24.7 134  69 IP  1  12.22  4.47  4.86-0.30 -0.09  1.05  J  0.027 1.73 44.0 1 3.64 D                        
 NMC  NC EHZ -- N 26.1 199  69 IPD 1  12.73  4.98  5.11-0.09 -0.04  1.05  J  0.056 5.62 50.0 2 3.26 D                        
 HOPS BK HHZ -- N 29.9 313  69 IPU 1  13.54  5.79  5.80 0.01 -0.02  1.05  J  0.045 0.00 43.0   2.80 D                        
 HOPS BK HHE -- N 29.9 313  69  P  4   7.76  0.01  5.80 0.01 -5.80X                0.00               0.350M .20             
 HOPS BK HHN -- N 29.9 313  69  P  4   7.76  0.01  5.80 0.01 -5.80X                0.00               0.520M .20             
 NMW  NC EHZ -- N 30.3 164  69 IPU 1  13.49  5.74  5.88-0.10 -0.04  1.05  J  0.039 2.82 64.0   3.40 D                        
 GHL  NC EHZ -- G 30.8 326  69 IPU 1  13.49  5.74  5.96-0.16 -0.06  1.05  J  0.04211.22 83.0 1 3.62 D                        
 NMT  NC EHZ -- N 32.0  91  69 IPU    13.76  6.01  6.19-0.07 -0.11  2.11  J  0.09611.22  111 2 3.75 D                        
 MNRC BK HHZ --   33.2  77  66 EPU 2  14.49  6.74  6.40 0.17  0.17  0.42  J  0.004 0.00 68.0 1 3.26 D                        
 MNRC BK HHE --   33.2  77  66  P  4   7.76  0.01  6.40 0.17 -6.56X                0.00               0.370M .20             
 MNRC BK HHN --   33.2  77  66  P  4   7.76  0.01  6.40 0.17 -6.56X                0.00               0.450M .20             
 GHG  NC EHZ -- G 34.9 359  66 EPD 2  14.29  6.54  6.71-0.14 -0.03  0.42  J  0.006 5.62 28.0 2 2.78 D                        
 GSN  NC EHZ -- G 35.6 294  66 IPU 1  14.61  6.86  6.82 0.06 -0.02  1.05  J  0.051 5.62 42.0   3.02 D                        
 GDC  NC EHZ -- G 37.1 263  66 IPD 1  14.94  7.19  7.11 0.08  0.00  1.05  J  0.060 5.62 28.0 2 2.69 D                        
 NSH  NC EHZ -- N 37.3 150  66 IPU 1  14.69  6.94  7.13-0.24  0.05  1.05  J  0.035 5.62 50.0 2 3.35 D                        
 GWK  NC EHZ 02 G 38.6  46  66 EP  3  15.05  7.30  7.37-0.01 -0.06  0.21  J  0.001 5.62 43.0 1 3.07 D                        
 NPV  NC EHZ 02 N 38.8 119  66 IPU    14.75  7.00  7.40-0.45  0.05  2.11  J  0.103 2.82 52.0 1 3.46 D                        
 NFV  NC EHZ -- N 39.0 191  66 EP  3  15.28  7.53  7.45-0.06  0.14  0.21  J  0.002 4.64 39.0 1 3.04 D                        
 GHC  NC EHZ -- G 40.4 236  66 EP  3  15.42  7.67  7.69-0.03  0.01  0.21  J  0.002 5.62 52.0 1 3.38 D                        
 GCW  NC EHZ -- G 41.8 328  66 EP  3  15.50  7.75  7.95-0.24  0.04  0.21  J  0.001 2.82 37.0   3.31 D                        
 NFR  NC EHZ 02 N 44.1 224  66 EPD 2  16.20  8.45  8.36 0.06  0.03  0.42  J  0.010 5.62 44.0 1 3.25 D                        
 1835 NP HNZ -- J 45.1 156  66 EP  3  16.38  8.63  8.53 0.00  0.10  0.21  J  0.001                                           
 GBM  NC EHZ -- G 45.6  37  66 EPU 2  16.77  9.02  8.63-0.07  0.46  0.00  J  0.000 2.82 19.0   2.50 D                        
 NTYB NC EHZ -- N 49.0 164  66 EPU 2  17.06  9.31  9.23-0.12  0.20  0.42  J  0.006 4.64 60.0 1 3.10 D                        
 GAR  NC EHZ -- G 51.7  71  66 EP  3  18.92 11.17  9.72 0.55  0.90* 0.00  J  0.000 5.62 53.0 2 2.95 D                        
 NEH  NC EHZ -- N 53.0 179  66 EP  3  17.78 10.03  9.94-0.04  0.13  0.21  J  0.001 4.64 29.0   2.92 D                        
 NIMB NC EHZ -- N 55.5 120  66 EPD 2  17.71  9.96 10.40-0.33 -0.11  0.42  J  0.004 5.62  117 6 4.20XD                        
 NSM  NC EHZ -- N 55.6 158  66 EP  3  18.28 10.53 10.42-0.02  0.13  0.21  J  0.001 1.73 56.0 1 3.01 D                        
 NBP  NC EHZ -- N 56.4 106  66 IPU    19.00 11.25 10.56 0.57  0.12  2.08  J  0.097 5.62 50.0 1 2.98 D                        
 NEA  NC EHZ -- N 57.0 192  66 EP  3  18.83 11.08 10.67 0.16  0.25  0.06  J  0.000 4.64 38.0   2.98 D                        
 GTS  NC EHZ -- G 58.3  18  66 IPU    18.77 11.02 10.90 0.16 -0.04  2.04  J  0.146 5.62 39.0 2 3.04 D                        
 GGU  NC EHZ -- G 59.4 275  66 EPU 2  18.73 10.98 11.10-0.11 -0.01  0.40  J  0.008 2.82 32.0 1 2.99 D                        
 NCP  NC EHZ 02 N 60.2  92  66 EP  3  20.67 12.92 11.24 1.59  0.09  0.20  J  0.000 2.82 50.0   3.07 D                        
 GWR  NC EHZ -- G 60.5 317  66 EP  3  18.98 11.23 11.29-0.27  0.21  0.19  J  0.001 2.82 18.0 2 2.41 D                        
 CVS  BK HHZ -- C 60.6 148  60 EP  3  18.58 10.83 11.31-0.24 -0.24  0.08  J  0.000 0.00 36.0   2.71 D                        
 CVS  BK HHE -- C 60.6 148  60  P  4   7.76  0.01 11.31-0.24-11.06X                0.00               0.090M .20             
 CVS  BK HHN -- C 60.6 148  60  P  4   7.76  0.01 11.31-0.24-11.06X                0.00               0.100M .20             
 NTR  NC EHZ -- N 63.7 178  60 EPD 2  19.58 11.83 11.83-0.04  0.04  0.38  J  0.006 4.64 26.0 1 2.74 D                        
 NBRB NC EHZ -- N 65.6 159  60 EP  3  19.65 11.90 12.17-0.26 -0.01  0.18  J  0.001 4.64 44.0 2 2.77 D                        
 1829 NP HNZ -- J 65.8 151  60 EP  3  19.19 11.44 12.20 0.00 -0.76* 0.00  J  0.000                                           
 GHO  NC EHZ -- G 67.9 293  60 EP  3  20.27 12.52 12.56-0.01 -0.03  0.17  J  0.001 5.62 42.0   3.06 D                        
 NHV  NC EHZ -- N 72.6 172  60 EPU 2  21.13 13.38 13.35-0.07  0.10  0.29  J  0.003 4.64 30.0 1 2.79 D                        
 GFC  NC EHZ -- G 73.0  38  60 EP  3  23.75 16.00 13.42 1.62  0.96* 0.00  J  0.000 5.62 14.0 7 1.77XD                        
 NSP  NC EHZ -- N 74.7 155  60 IPU    21.15 13.40 13.71-0.46  0.15  1.31  J  0.063 4.64 40.0   2.92 D                        
 NVA  NC EHZ -- N 75.3 125  60 EPD 2  21.77 14.02 13.81 0.14  0.07  0.25  J  0.001 2.82 35.0   2.97 D                        
 GHM  NC EHZ -- G 76.3 353  60 IPD    22.21 14.46 14.00 0.26  0.20  1.20  J  0.058 5.62 24.0   2.55 D                        
 MCCM BK HHZ -- N 77.8 185  60 EPD 2  21.28 13.53 14.24-0.12 -0.59* 0.00  J  0.000 0.00 28.0 1 2.49 D                        
 NDH  NC EHZ -- N 78.7  93  60 IPU    23.42 15.67 14.39 1.22  0.06  1.06  J  0.029 5.62 93.0 2 3.83 D                        
 NTO  NC EHZ -- N 80.9 156  60 IPU 1  22.51 14.76 14.78-0.03  0.01  0.46  J  0.007 4.64 33.0   2.65 D                        
 GNA  NC EHZ 02 G 82.5 302  60 IPU    23.02 15.27 15.05 0.10  0.12  0.82  J  0.032 2.82 36.0   2.93 D                        
 NAD  NC EHZ -- N 83.4 117  60 IPU 1  24.04 16.29 15.21 0.99  0.09  0.38  J  0.003 2.82 48.0 1 3.03 D                        
 GCK  NC EHZ -- G 87.4  21  60 IP     24.94 17.19 15.89 1.22  0.08  0.53  J  0.010 5.62 35.0 4 2.48XD                        
 NHF  NC EHZ -- N 88.6 163  40 IPD    23.10 15.35 16.04-0.41 -0.28  0.00  J  0.000 4.64 28.0   2.49 D                        
 KRK  NC SHZ -- K 89.1 340  40 IPU    24.25 16.50 16.10 0.40  0.00  0.44  J  0.010 5.62 23.0 2 2.48 D                        
 VALB BK EP1 -- N 90.2 148  40 EPU 2  23.96 16.21 16.24 0.00 -0.03  0.08  J  0.000 0.00 22.0 5                               
 GTC  NC SHZ -- G 91.2 316  40 IPU 1  24.30 16.55 16.38 0.07  0.10  0.17  J  0.001 5.62 21.0 1 2.42 D                        
 NPRB NC EHZ -- N 92.4 192  40 EPD 2  24.91 17.16 16.53-0.03  0.66* 0.00  J  0.000 4.64 15.0 2 2.06 D                        
 GASB BK HHZ -- G 93.8   5  40 IPU 1  25.68 17.93 16.70 0.02  1.21* 0.00  J  0.000 0.00 18.0 2 2.08 D                        
 NCC  NC EHZ -- N 94.9 161  40 IPD    24.28 16.53 16.84-0.21 -0.10  0.19  J  0.001 0.00 33.0   2.67 D                        
 NMI  NC EHZ -- N 95.3 149  40 IPD    24.44 16.69 16.89 0.02 -0.22  0.14  J  0.000 4.64 52.0   2.94 D                        
 NLH  NC EHZ -- N 96.3 142  40 IPU    24.78 17.03 17.02-0.07  0.08  0.14  J  0.000 1.73 37.0   2.71 D                        
 OSU  NC EHZ -- O 97.6  58  40 EPU 2  26.12 18.37 17.19-0.25  1.43* 0.00  J  0.000 5.62 43.0   2.62 D                        
 NBO  NC EHZ -- N 99.4 175  40 IPU    25.54 17.79 17.41-0.05  0.43  0.00  J  0.000 1.73 49.0   3.19 D                        
 SUTB BK HHZ --  100.4  62  40 EP  3  25.10 17.35 17.54-0.37  0.18  0.00  J  0.000 0.00 33.0   2.67 D                        
 NTAC NC EHZ -- N100.6 168  40 EPD 2  25.41 17.66 17.57-0.33  0.42  0.00  J  0.000 4.64 26.0   2.80 D                        
 OHLN BK EP2 -- C101.4 151  40 ES  2  39.08 31.33 31.43 0.00 -0.10  0.00S J  0.000                                           
 CPM  NC EHZ -- C102.4 159  40 EPD 2  25.75 18.00 17.79-0.31  0.52* 0.00  J  0.000 4.64 30.0   2.61 D                        
 CSP  NC EHZ -- C104.8 154  40 EPU 2  27.19 19.44 18.10 0.43  0.91* 0.00  J  0.000 1.41 27.0   2.78 D                        
 CPI  NC EHZ -- C105.5 150  40 EPD 2  26.31 18.56 18.19 0.13  0.24  0.00  J  0.000 4.64 48.0   2.79 D                        
 KFP  NC SHZ -- K105.6 331  40 EP  3  27.27 19.52 18.20 1.07  0.25  0.00  J  0.000 5.62 17.0 2 2.28 D                        
 GVV  NC EHZ -- G107.4   6  40 EPD 2  27.93 20.18 18.43 1.79 -0.04  0.00  J  0.000 5.62 18.0 2 2.25 D                        
 RFSB BK DP1 -- C108.1 157  40 EP  3  26.45 18.70 18.51-0.56  0.75* 0.00  J  0.000 0.00 17.0 7                               
 NRL  NC EHZ -- N111.3 167  40 EPD 2  26.30 18.55 18.92 0.13 -0.50* 0.00  J  0.000 1.41 24.0 1 2.87 D                        
 MHDL BK EP1 -- N111.4 165  40 IPD 1  26.67 18.92 18.93 0.32 -0.33  0.00  J  0.000 0.00 17.0 7                               
 MHDL BK EP2 -- N111.4 165  40 ES  2  40.65 32.90 33.70 0.57 -1.37* 0.00S J  0.000                                           
 CAG  NC EHZ -- C111.6 161  40 EP  3  27.18 19.43 18.95 0.40  0.08  0.00  J  0.000 4.64 35.0   2.78 D                        
 CTA  NC EHZ -- C111.8 141  40 EP  3  28.00 20.25 18.99 1.28 -0.02  0.00  J  0.000 4.64 36.0   2.35 D                        
 BRIB BK DP3 -- C115.1 149  40 ES  2  42.57 34.82 34.51 0.59 -0.28  0.00S J  0.000                                           
 BRIB BK HHZ -- C115.1 149  40 EPD 2  27.56 19.81 19.39 0.33  0.09  0.00  J  0.000 0.00 23.0   2.34 D                        
 BKS  BK HHZ -- C115.8 153  40 EP  3  27.77 20.02 19.49 0.38  0.15  0.00  J  0.000 0.00 36.0   2.77 D                        
 GBB  NC EHZ -- G116.9  20  40 EPD 2  29.88 22.13 19.63 0.86  1.64* 0.00  J  0.000 5.62 21.0 1 2.10 D                        
 KCPB NC HHZ -- K117.3 326  40 EPD 2  29.85 22.10 19.68 1.63  0.79* 0.00  J  0.000 1.08 19.0 2 2.05 D                        
